     2.10           G: GLONASS NAV DATA                     RINEX VERSION / TYPE
teqc  2015Jun23                         20220412 01:26:46UTCPGM / RUN BY / DATE
Linux 2.4.21-27.ELsmp|Opteron|gcc -static|Linux x86_64|=+   COMMENT
  2022     3    20    2.328306436539D-09                    CORR TO SYSTEM TIME
                                                            END OF HEADER
24 22  3 21 22 45  0.0 8.547119796276D-05 1.818989403546D-12 8.100000000000D+04
    1.579304003906D+04-1.622020721436D+00 2.793967723846D-09 0.000000000000D+00
    1.465600000000D+04-9.442415237427D-01 4.656612873077D-09 2.000000000000D+00
   -1.363356787109D+04-2.890874862671D+00-0.000000000000D+00 0.000000000000D+00
 2 22  3 21 22 45  0.0 5.132146179676D-04 9.094947017729D-13 8.277000000000D+04
    4.599752929688D+03-2.571604728699D+00 0.000000000000D+00 0.000000000000D+00
    1.002643701172D+04 1.807172775269D+00-0.000000000000D+00-4.000000000000D+00
    2.304302832031D+04-2.792205810547D-01-2.793967723846D-09 0.000000000000D+00
 2 22  3 21 23 15  0.0 5.132192745805D-04 9.094947017729D-13 8.280000000000D+04
    3.267636718750D+02-2.142189979553D+00 9.313225746155D-10 0.000000000000D+00
    1.352119140625D+04 2.037384033203D+00-9.313225746155D-10-4.000000000000D+00
    2.165996679688D+04-1.247802734375D+00-2.793967723846D-09 0.000000000000D+00
 1 22  3 21 23 15  0.0 7.315538823605D-06 0.000000000000D+00 8.280000000000D+04
   -1.489360986328D+04-6.227588653564D-01 9.313225746155D-10 0.000000000000D+00
    1.937432226562D+04 8.002071380615D-01-1.862645149231D-09 1.000000000000D+00
    7.344535156250D+03-3.375051498413D+00-9.313225746155D-10 0.000000000000D+00
 8 22  3 21 23 15  0.0-6.414577364922D-05-0.000000000000D+00 8.280000000000D+04
   -2.012155712891D+04 9.783601760864D-01 9.313225746155D-10 0.000000000000D+00
    1.302196972656D+04-6.986980438232D-01-1.862645149231D-09 6.000000000000D+00
   -8.633600585938D+03-3.312864303589D+00 9.313225746155D-10 0.000000000000D+00
12 22  3 21 23 15  0.0 1.753121614456D-05 0.000000000000D+00 8.280000000000D+04
   -1.853132812500D+03-3.146228790283D-01 1.862645149231D-09 0.000000000000D+00
    2.129186181641D+04-1.881755828857D+00-0.000000000000D+00-1.000000000000D+00
    1.392753710938D+04 2.840735435486D+00-2.793967723846D-09 0.000000000000D+00
13 22  3 21 23 15  0.0-1.977197825909D-05-0.000000000000D+00 8.280000000000D+04
    7.058070800781D+03 2.161827087402D-01 3.725290298462D-09 0.000000000000D+00
    2.441719580078D+04 2.479333877563D-01 2.793967723846D-09-2.000000000000D+00
   -2.156089355469D+03 3.549454689026D+00-1.862645149231D-09 0.000000000000D+00
23 22  3 21 23 15  0.0-3.438256680965D-05-9.094947017729D-13 8.280000000000D+04
   -3.446203125000D+03-3.035398483276D+00 1.862645149231D-09 0.000000000000D+00
    9.801775390625D+03-9.945516586304D-01 9.313225746155D-10 3.000000000000D+00
   -2.330308251953D+04 3.146362304688D-02 1.862645149231D-09 0.000000000000D+00
24 22  3 21 23 15  0.0 8.547399193048D-05 1.818989403546D-12 8.280000000000D+04
    1.220377001953D+04-2.343316078186D+00 2.793967723846D-09 0.000000000000D+00
    1.297156396484D+04-8.862276077271D-01 3.725290298462D-09 2.000000000000D+00
   -1.824200390625D+04-2.196290016174D+00 9.313225746155D-10 0.000000000000D+00
14 22  3 21 23 15  0.0 7.563550025225D-05 0.000000000000D+00 8.358000000000D+04
    1.218275781250D+04 6.601877212524D-01 3.725290298462D-09 0.000000000000D+00
    1.290396777344D+04 2.421703338623D+00 3.725290298462D-09-7.000000000000D+00
   -1.832304736328D+04 2.142498970032D+00 0.000000000000D+00 0.000000000000D+00
 1 22  3 21 23 45  0.0 7.315538823605D-06 0.000000000000D+00 8.460000000000D+04
   -1.540954345703D+04 2.630710601807D-02 9.313225746155D-10 0.000000000000D+00
    2.030975878906D+04 2.054023742676D-01-1.862645149231D-09 1.000000000000D+00
    1.064178710938D+03-3.557853698730D+00-0.000000000000D+00 0.000000000000D+00
 2 22  3 21 23 45  0.0 5.132220685482D-04 9.094947017729D-13 8.460000000000D+04
   -3.018075195312D+03-1.556755065918D+00 9.313225746155D-10 0.000000000000D+00
    1.720547900391D+04 2.009746551514D+00-9.313225746155D-10-4.000000000000D+00
    1.860792236328D+04-2.121640205383D+00-2.793967723846D-09 0.000000000000D+00
 8 22  3 21 23 45  0.0-6.414670497179D-05-0.000000000000D+00 8.460000000000D+04
   -1.798881542969D+04 1.347716331482D+00 0.000000000000D+00 0.000000000000D+00
    1.111828759766D+04-1.422061920166D+00-9.313225746155D-10 6.000000000000D+00
   -1.418410742188D+04-2.814027786255D+00 1.862645149231D-09 0.000000000000D+00
12 22  3 21 23 45  0.0 1.753121614456D-05 0.000000000000D+00 8.460000000000D+04
   -2.845299804688D+03-8.045482635498D-01 9.313225746155D-10 0.000000000000D+00
    1.740786816406D+04-2.390365600586D+00-9.313225746155D-10-1.000000000000D+00
    1.843663769531D+04 2.136951446533D+00-2.793967723846D-09 0.000000000000D+00
13 22  3 21 23 45  0.0-1.977290958166D-05-0.000000000000D+00 8.460000000000D+04
    7.220813476562D+03-7.338142395020D-02 3.725290298462D-09 0.000000000000D+00
    2.409020800781D+04-5.968093872070D-01 9.313225746155D-10-2.000000000000D+00
    4.233724121094D+03 3.504209518433D+00-2.793967723846D-09 0.000000000000D+00
14 22  3 21 23 45  0.0 7.563643157482D-05 0.000000000000D+00 8.460000000000D+04
    1.350997607422D+04 7.765769958496D-01 4.656612873077D-09 0.000000000000D+00
    1.666160742188D+04 1.727245330811D+00 2.793967723846D-09-7.000000000000D+00
   -1.380811376953D+04 2.841503143311D+00-0.000000000000D+00 0.000000000000D+00
24 22  3 21 23 45  0.0 8.547678589821D-05 1.818989403546D-12 8.460000000000D+04
    7.469585449219D+03-2.878045082092D+00 2.793967723846D-09 0.000000000000D+00
    1.159810351562D+04-6.086397171021D-01 1.862645149231D-09 2.000000000000D+00
   -2.143784619141D+04-1.331541061401D+00 9.313225746155D-10 0.000000000000D+00
